0 COSMOS 2251 DEB
1 35072U 93036AJB 13283.40905634  .00003637  00000-0  13064-2 0  2130
2 35072 074.0905 186.9363 0070795 232.6004 127.6829 14.32783835234867
0 COSMOS 2251 DEB
1 35072U 93036AJB 13292.34598675  .00003727  00000-0  13362-2 0  2148
2 35072 074.0915 170.6766 0071122 213.6368 146.5809 14.32856809236145
